ONEWEB-0694             
1 56722U 23068N   23334.58334491 -.00645969  00000+0 -12280+0 0  9995
2 56722  86.8046  61.0712 0011951 262.8535 211.5648 14.66827875 29508
ONEWEB-0696             
1 56723U 23068P   23333.83866162  .00000613  00000+0  15937-2 0  9992
2 56723  87.9006  84.4321 0001216 103.5673 256.5592 13.15550148 27749
ONEWEB-0703             
1 56724U 23068Q   23333.84887406  .00000165  00000+0  40558-3 0  9998
2 56724  87.9003  84.4528 0000311  62.6338 297.4824 13.15551474 27637
ONEWEB-0721             
1 56725U 23068R   23334.30724191  .00005772  00000+0  69491-3 0  9998
2 56725  86.6801  59.5614 0008704 258.7566 101.2679 14.83716728 29558
